GLOBALSTAR M084         
1 38040U 11080A   24290.41623312 -.00000095  00000+0  46480-4 0  9994
2 38040  52.0008  70.5987 0000636 120.7350 273.0496 12.62268791591887
GLOBALSTAR M080         
1 38041U 11080B   24290.47101453 -.00000100  00000+0  21748-4 0  9995
2 38041  52.0059  71.9538 0000869 134.7533 267.7608 12.62267075592012
GLOBALSTAR M082         
1 38042U 11080C   24290.74807235 -.00000085  00000+0  10296-3 0  9994
2 38042  52.0099  26.5321 0000768  65.4469  96.8523 12.62267734592928
GLOBALSTAR M092         
1 38043U 11080D   24290.24855779 -.00000062  00000+0  23280-3 0  9998
2 38043  52.0068 118.4166 0000770  88.6589  82.7869 12.62267963591140
GLOBALSTAR M090         
1 38044U 11080E   24290.43945795 -.00000086  00000+0  10002-3 0  9992
2 38044  51.9913  21.5938 0000677  86.6045 352.8509 12.62268714592834
GLOBALSTAR M086         
1 38045U 11080F   24290.63753733 -.00000085  00000+0  10469-3 0  9990
2 38045  51.9922  21.5218 0001465 127.7318  12.8719 12.62268368592800
GLOBALSTAR M097         
1 39072U 13005A   24290.47503059 -.00000091  00000+0  69863-4 0  9996
2 39072  52.0048 296.3208 0000672  81.8210 278.2733 12.62271845540039
GLOBALSTAR M093         
1 39073U 13005B   24290.44824386 -.00000078  00000+0  14237-3 0  9992
2 39073  51.9810 290.0924 0000719  74.8025 285.2921 12.62265691539980
